start=new Date('2023-03-15T00:00:00.000Z').valueOf();
sats=[{"MEAN_MOTION":"15.08861744","TIME_SYSTEM":"UTC","OBJECT_ID":"2022-119L","BSTAR":"0.00092245000000","REV_AT_EPOCH":"2698","EPHEMERIS_TYPE":"0","MEAN_MOTION_DOT":"0.00014432","CENTER_NAME":"EARTH","RA_OF_ASC_NODE":"181.6271","SEMIMAJOR_AXIS":"6917.814","LAUNCH_DATE":"2022-09-24","TLE_LINE2":"2 53896  53.2179 181.6271 0001351  69.9692 290.1446 15.08861744 26982","RCS_SIZE":"LARGE","OBJECT_NAME":"STARLINK-5037","GP_ID":"228110393","COUNTRY_CODE":"US","ARG_OF_PERICENTER":"69.9692","ELEMENT_SET_NO":"999","MEAN_ELEMENT_THEORY":"SGP4","SITE":"AFETR","TLE_LINE1":"1 53896U 22119L   23073.69422312  .00014432  00000-0  92245-3 0  9999","CLASSIFICATION_TYPE":"U","DECAY_DATE":null,"OBJECT_TYPE":"PAYLOAD","ECCENTRICITY":"0.00013510","NORAD_CAT_ID":"53896","MEAN_MOTION_DDOT":"0.0000000000000","EPOCH":"2023-03-14T16:39:40.877568","REF_FRAME":"TEME","APOAPSIS":"540.614","PERIAPSIS":"538.744","MEAN_ANOMALY":"290.1446","FILE":"3860643","INCLINATION":"53.2179","PERIOD":"95.436"},{"MEAN_MOTION_DDOT":"0.0000000000000","NORAD_CAT_ID":"53897","OBJECT_TYPE":"PAYLOAD","ECCENTRICITY":"0.00013180","DECAY_DATE":null,"CLASSIFICATION_TYPE":"U","TLE_LINE1":"1 53897U 22119M   23073.64271063  .00000313  00000-0  37719-4 0  9999","PERIOD":"95.436","FILE":"3860643","MEAN_ANOMALY":"267.8637","INCLINATION":"53.2182","PERIAPSIS":"538.748","APOAPSIS":"540.571","REF_FRAME":"TEME","EPOCH":"2023-03-14T15:25:30.198432","EPHEMERIS_TYPE":"0","REV_AT_EPOCH":"2697","BSTAR":"0.00003771900000","TIME_SYSTEM":"UTC","OBJECT_ID":"2022-119M","MEAN_MOTION":"15.08868058","SITE":"AFETR","MEAN_ELEMENT_THEORY":"SGP4","GP_ID":"228111644","COUNTRY_CODE":"US","ELEMENT_SET_NO":"999","ARG_OF_PERICENTER":"92.2506","OBJECT_NAME":"STARLINK-5035","RCS_SIZE":"LARGE","TLE_LINE2":"2 53897  53.2182 182.0121 0001318  92.2506 267.8637 15.08868058 26979","LAUNCH_DATE":"2022-09-24","SEMIMAJOR_AXIS":"6917.795","RA_OF_ASC_NODE":"182.0121","MEAN_MOTION_DOT":"0.00000313","CENTER_NAME":"EARTH"},{"DECAY_DATE":null,"CLASSIFICATION_TYPE":"U","TLE_LINE1":"1 53898U 22119N   23073.68316441  .00002233  00000-0  15825-3 0  9990","MEAN_MOTION_DDOT":"0.0000000000000","NORAD_CAT_ID":"53898","OBJECT_TYPE":"PAYLOAD","ECCENTRICITY":"0.00014690","EPOCH":"2023-03-14T16:23:45.405024","REF_FRAME":"TEME","APOAPSIS":"540.710","INCLINATION":"53.2166","FILE":"3860643","MEAN_ANOMALY":"273.6476","PERIAPSIS":"538.678","PERIOD":"95.436","BSTAR":"0.00015825000000","TIME_SYSTEM":"UTC","OBJECT_ID":"2022-119N","MEAN_MOTION":"15.08856780","EPHEMERIS_TYPE":"0","REV_AT_EPOCH":"2698","RA_OF_ASC_NODE":"181.5554","MEAN_MOTION_DOT":"0.00002233","CENTER_NAME":"EARTH","LAUNCH_DATE":"2022-09-24","SEMIMAJOR_AXIS":"6917.829","GP_ID":"228111384","ARG_OF_PERICENTER":"86.4684","COUNTRY_CODE":"US","ELEMENT_SET_NO":"999","MEAN_ELEMENT_THEORY":"SGP4","OBJECT_NAME":"STARLINK-5044","TLE_LINE2":"2 53898  53.2166 181.5554 0001469  86.4684 273.6476 15.08856780 26981","RCS_SIZE":"LARGE","SITE":"AFETR"},{"MEAN_MOTION_DDOT":"0.0000000000000","NORAD_CAT_ID":"53899","OBJECT_TYPE":"PAYLOAD","ECCENTRICITY":"0.00011210","DECAY_DATE":null,"CLASSIFICATION_TYPE":"U","TLE_LINE1":"1 53899U 22119P   23073.68685535  .00009061  00000-0  58646-3 0  9998","INCLINATION":"53.2168","FILE":"3860643","MEAN_ANOMALY":"275.9284","PERIAPSIS":"538.931","PERIOD":"95.437","REF_FRAME":"TEME","EPOCH":"2023-03-14T16:29:04.302240","APOAPSIS":"540.482","EPHEMERIS_TYPE":"0","REV_AT_EPOCH":"2698","BSTAR":"0.00058646000000","OBJECT_ID":"2022-119P","TIME_SYSTEM":"UTC","MEAN_MOTION":"15.08852645","COUNTRY_CODE":"US","GP_ID":"228110643","ARG_OF_PERICENTER":"84.1835","ELEMENT_SET_NO":"999","MEAN_ELEMENT_THEORY":"SGP4","OBJECT_NAME":"STARLINK-5042","RCS_SIZE":"LARGE","TLE_LINE2":"2 53899  53.2168 181.5800 0001121  84.1835 275.9284 15.08852645 26984","SITE":"AFETR","RA_OF_ASC_NODE":"181.5800","MEAN_MOTION_DOT":"0.00009061","CENTER_NAME":"EARTH","LAUNCH_DATE":"2022-09-24","SEMIMAJOR_AXIS":"6917.842"},{"LAUNCH_DATE":"2022-09-24","SEMIMAJOR_AXIS":"6917.719","RA_OF_ASC_NODE":"180.9216","MEAN_MOTION_DOT":"0.00025515","CENTER_NAME":"EARTH","SITE":"AFETR","GP_ID":"228081142","COUNTRY_CODE":"US","ELEMENT_SET_NO":"999","MEAN_ELEMENT_THEORY":"SGP4","ARG_OF_PERICENTER":"69.9496","OBJECT_NAME":"STARLINK-5045","RCS_SIZE":"LARGE","TLE_LINE2":"2 53900  53.2150 180.9216 0001615  69.9496 290.1670 15.08892653 26581","BSTAR":"0.00161310000000","TIME_SYSTEM":"UTC","OBJECT_ID":"2022-119Q","MEAN_MOTION":"15.08892653","EPHEMERIS_TYPE":"0","REV_AT_EPOCH":"2658","APOAPSIS":"540.702","EPOCH":"2023-03-14T19:23:55.566528","REF_FRAME":"TEME","PERIOD":"95.434","MEAN_ANOMALY":"290.1670","FILE":"3860445","INCLINATION":"53.2150","PERIAPSIS":"538.467","DECAY_DATE":null,"CLASSIFICATION_TYPE":"U","TLE_LINE1":"1 53900U 22119Q   23073.80828202  .00025515  00000-0  16131-2 0  9999","MEAN_MOTION_DDOT":"0.0000000000000","NORAD_CAT_ID":"53900","ECCENTRICITY":"0.00016150","OBJECT_TYPE":"PAYLOAD"},{"DECAY_DATE":null,"CLASSIFICATION_TYPE":"U","TLE_LINE1":"1 53901U 22119R   23073.69053372  .00003112  00000-0  21340-3 0  9993","MEAN_MOTION_DDOT":"0.0000000000000","NORAD_CAT_ID":"53901","OBJECT_TYPE":"PAYLOAD","ECCENTRICITY":"0.00015700","APOAPSIS":"540.771","EPOCH":"2023-03-14T16:34:22.113408","REF_FRAME":"TEME","PERIOD":"95.436","FILE":"3860643","MEAN_ANOMALY":"272.3455","INCLINATION":"53.2158","PERIAPSIS":"538.599","BSTAR":"0.00021340000000","OBJECT_ID":"2022-119R","TIME_SYSTEM":"UTC","MEAN_MOTION":"15.08859721","EPHEMERIS_TYPE":"0","REV_AT_EPOCH":"2698","LAUNCH_DATE":"2022-09-24","SEMIMAJOR_AXIS":"6917.820","RA_OF_ASC_NODE":"181.6005","MEAN_MOTION_DOT":"0.00003112","CENTER_NAME":"EARTH","SITE":"AFETR","ARG_OF_PERICENTER":"87.7717","GP_ID":"228111145","COUNTRY_CODE":"US","ELEMENT_SET_NO":"999","MEAN_ELEMENT_THEORY":"SGP4","OBJECT_NAME":"STARLINK-5024","RCS_SIZE":"LARGE","TLE_LINE2":"2 53901  53.2158 181.6005 0001570  87.7717 272.3455 15.08859721 26984"},{"REV_AT_EPOCH":"130","EPHEMERIS_TYPE":"0","TIME_SYSTEM":"UTC","OBJECT_ID":"2022-119S","BSTAR":"-0.03878500000000","MEAN_MOTION":"15.24542900","OBJECT_NAME":"STARLINK-5021","GP_ID":"228111884","ELEMENT_SET_NO":"999","COUNTRY_CODE":"US","ARG_OF_PERICENTER":"94.7547","MEAN_ELEMENT_THEORY":"SGP4","TLE_LINE2":"2 53902  53.2092 131.0293 0001306  94.7547 236.1842 15.24542900  1309","RCS_SIZE":"LARGE","SITE":"AFETR","RA_OF_ASC_NODE":"131.0293","MEAN_MOTION_DOT":"-0.00898416","CENTER_NAME":"EARTH","LAUNCH_DATE":"2022-09-24","SEMIMAJOR_AXIS":"6870.295","MEAN_MOTION_DDOT":"0.0000000000000","ECCENTRICITY":"0.00013060","OBJECT_TYPE":"PAYLOAD","NORAD_CAT_ID":"53902","DECAY_DATE":null,"TLE_LINE1":"1 53902U 22119S   23073.91667824 -.00898416  00000-0 -38785-1 0  9992","CLASSIFICATION_TYPE":"U","MEAN_ANOMALY":"236.1842","FILE":"3860643","INCLINATION":"53.2092","PERIAPSIS":"491.263","PERIOD":"94.455","REF_FRAME":"TEME","EPOCH":"2023-03-14T22:00:00.999936","APOAPSIS":"493.058"},{"REF_FRAME":"TEME","EPOCH":"2023-03-14T16:18:27.624096","APOAPSIS":"541.065","PERIAPSIS":"538.385","INCLINATION":"53.2157","FILE":"3860643","MEAN_ANOMALY":"257.8228","PERIOD":"95.437","CLASSIFICATION_TYPE":"U","TLE_LINE1":"1 53903U 22119T   23073.67948639  .00001971  00000-0  14186-3 0  9993","DECAY_DATE":null,"NORAD_CAT_ID":"53903","OBJECT_TYPE":"PAYLOAD","ECCENTRICITY":"0.00019370","MEAN_MOTION_DDOT":"0.0000000000000","MEAN_MOTION_DOT":"0.00001971","CENTER_NAME":"EARTH","RA_OF_ASC_NODE":"181.5336","SEMIMAJOR_AXIS":"6917.860","LAUNCH_DATE":"2022-09-24","TLE_LINE2":"2 53903  53.2157 181.5336 0001937 102.2981 257.8228 15.08846577 26985","RCS_SIZE":"LARGE","COUNTRY_CODE":"US","GP_ID":"228110144","ELEMENT_SET_NO":"999","ARG_OF_PERICENTER":"102.2981","MEAN_ELEMENT_THEORY":"SGP4","OBJECT_NAME":"STARLINK-5022","SITE":"AFETR","MEAN_MOTION":"15.08846577","BSTAR":"0.00014186000000","TIME_SYSTEM":"UTC","OBJECT_ID":"2022-119T","EPHEMERIS_TYPE":"0","REV_AT_EPOCH":"2698"},{"PERIOD":"95.437","FILE":"3860643","MEAN_ANOMALY":"261.0987","INCLINATION":"53.2161","PERIAPSIS":"538.502","APOAPSIS":"540.907","REF_FRAME":"TEME","EPOCH":"2023-03-14T16:07:51.069504","MEAN_MOTION_DDOT":"0.0000000000000","OBJECT_TYPE":"PAYLOAD","ECCENTRICITY":"0.00017380","NORAD_CAT_ID":"53904","DECAY_DATE":null,"TLE_LINE1":"1 53904U 22119U   23073.67211886  .00004837  00000-0  32170-3 0  9998","CLASSIFICATION_TYPE":"U","SITE":"AFETR","OBJECT_NAME":"STARLINK-4787","GP_ID":"228110394","ARG_OF_PERICENTER":"99.0202","COUNTRY_CODE":"US","ELEMENT_SET_NO":"999","MEAN_ELEMENT_THEORY":"SGP4","TLE_LINE2":"2 53904  53.2161 181.4899 0001738  99.0202 261.0987 15.08853301 26984","RCS_SIZE":"LARGE","LAUNCH_DATE":"2022-09-24","SEMIMAJOR_AXIS":"6917.840","RA_OF_ASC_NODE":"181.4899","MEAN_MOTION_DOT":"0.00004837","CENTER_NAME":"EARTH","REV_AT_EPOCH":"2698","EPHEMERIS_TYPE":"0","TIME_SYSTEM":"UTC","OBJECT_ID":"2022-119U","BSTAR":"0.00032170000000","MEAN_MOTION":"15.08853301"},{"EPOCH":"2023-03-14T20:39:32.829696","REF_FRAME":"TEME","APOAPSIS":"540.739","PERIAPSIS":"538.689","MEAN_ANOMALY":"315.6498","FILE":"3860432","INCLINATION":"53.2149","PERIOD":"95.437","CLASSIFICATION_TYPE":"U","TLE_LINE1":"1 53905U 22119V   23073.86079664  .00010842  00000-0  69804-3 0  9993","DECAY_DATE":null,"NORAD_CAT_ID":"53905","OBJECT_TYPE":"PAYLOAD","ECCENTRICITY":"0.00014820","MEAN_MOTION_DDOT":"0.0000000000000","MEAN_MOTION_DOT":"0.00010842","CENTER_NAME":"EARTH","RA_OF_ASC_NODE":"171.2580","LAUNCH_DATE":"2022-09-24","SEMIMAJOR_AXIS":"6917.849","TLE_LINE2":"2 53905  53.2149 171.2580 0001482  44.4613 315.6498 15.08850359 26726","RCS_SIZE":"LARGE","COUNTRY_CODE":"US","GP_ID":"228081164","MEAN_ELEMENT_THEORY":"SGP4","ELEMENT_SET_NO":"999","ARG_OF_PERICENTER":"44.4613","OBJECT_NAME":"STARLINK-5003","SITE":"AFETR","MEAN_MOTION":"15.08850359","BSTAR":"0.00069804000000","OBJECT_ID":"2022-119V","TIME_SYSTEM":"UTC","EPHEMERIS_TYPE":"0","REV_AT_EPOCH":"2672"}];
